{"type": "FeatureCollection", "features": [{"type": "Feature", "properties": {"norad_id": 50032, "name": "COSMOS 1408 DEB", "group": "cosmos-1408-debris", "lat": 62.48723610612393, "lon": 61.632202894824644, "alt_km": 425.63479215795815, "timestamp": "2025-12-23T20:42:37.346315+00:00", "meta": {"OBJECT_NAME": "COSMOS 1408 DEB", "OBJECT_ID": "1982-092RU", "EPOCH": "2025-12-23T04:54:00.638784", "MEAN_MOTION": 15.45793948, "ECCENTRICITY": 0.00163136, "INCLINATION": 82.563, "RA_OF_ASC_NODE": 47.7829, "ARG_OF_PERICENTER": 169.8241, "MEAN_ANOMALY": 190.3342, "EPHEMERIS_TYPE": 0, "CLASSIFICATION_TYPE": "U", "NORAD_CAT_ID": 50032, "ELEMENT_SET_NO": 999, "REV_AT_EPOCH": 22765, "BSTAR": 0.00010744328, "MEAN_MOTION_DOT": 5.269e-05, "MEAN_MOTION_DDOT": 0}, "tle": {"line1": "1 50032U 82092RU  25357.20417406  .00005269  00000+0  10744-3 0  9997", "line2": "2 50032  82.5630  47.7829 0016313 169.8241 190.3342 15.45793948227657"}}, "geometry": {"type": "Point", "coordinates": [61.632202894824644, 62.48723610612393]}}, {"type": "Feature", "properties": {"norad_id": 50058, "name": "COSMOS 1408 DEB", "group": "cosmos-1408-debris", "lat": -66.69145951056872, "lon": 40.166269864678455, "alt_km": 387.98537525428856, "timestamp": "2025-12-23T20:42:37.346336+00:00", "meta": {"OBJECT_NAME": "COSMOS 1408 DEB", "OBJECT_ID": "1982-092SW", "EPOCH": "2025-12-23T04:07:00.859872", "MEAN_MOTION": 15.64713, "ECCENTRICITY": 0.00159845, "INCLINATION": 82.6118, "RA_OF_ASC_NODE": 58.4192, "ARG_OF_PERICENTER": 63.7743, "MEAN_ANOMALY": 296.5157, "EPHEMERIS_TYPE": 0, "CLASSIFICATION_TYPE": "U", "NORAD_CAT_ID": 50058, "ELEMENT_SET_NO": 999, "REV_AT_EPOCH": 22967, "BSTAR": 0.00034025417, "MEAN_MOTION_DOT": 0.00033308, "MEAN_MOTION_DDOT": 0}, "tle": {"line1": "1 50058U 82092SW  25357.17153773  .00033308  00000+0  34025-3 0  9998", "line2": "2 50058  82.6118  58.4192 0015984  63.7743 296.5157 15.64713000229670"}}, "geometry": {"type": "Point", "coordinates": [40.166269864678455, -66.69145951056872]}}, {"type": "Feature", "properties": {"norad_id": 50404, "name": "COSMOS 1408 DEB", "group": "cosmos-1408-debris", "lat": -33.26810152580414, "lon": 28.789590197384648, "alt_km": 454.6304472969732, "timestamp": "2025-12-23T20:42:37.346350+00:00", "meta": {"OBJECT_NAME": "COSMOS 1408 DEB", "OBJECT_ID": "1982-092ADS", "EPOCH": "2025-12-23T00:45:48.911904", "MEAN_MOTION": 15.15350794, "ECCENTRICITY": 0.01677821, "INCLINATION": 82.2023, "RA_OF_ASC_NODE": 204.4845, "ARG_OF_PERICENTER": 163.5527, "MEAN_ANOMALY": 197.1246, "EPHEMERIS_TYPE": 0, "CLASSIFICATION_TYPE": "U", "NORAD_CAT_ID": 50404, "ELEMENT_SET_NO": 999, "REV_AT_EPOCH": 21349, "BSTAR": 0.0032418287, "MEAN_MOTION_DOT": 0.00088331, "MEAN_MOTION_DDOT": 0}, "tle": {"line1": "1 50404U 82092ADS 25357.03181611  .00088331  00000+0  32418-2 0  9999", "line2": "2 50404  82.2023 204.4845 0167782 163.5527 197.1246 15.15350794213498"}}, "geometry": {"type": "Point", "coordinates": [28.789590197384648, -33.26810152580414]}}, {"type": "Feature", "properties": {"norad_id": 50621, "name": "COSMOS 1408 DEB", "group": "cosmos-1408-debris", "lat": 8.780385500723446, "lon": 63.751675036053825, "alt_km": 402.1046411176003, "timestamp": "2025-12-23T20:42:37.346362+00:00", "meta": {"OBJECT_NAME": "COSMOS 1408 DEB", "OBJECT_ID": "1982-092ALR", "EPOCH": "2025-12-22T15:22:09.683040", "MEAN_MOTION": 15.5714769, "ECCENTRICITY": 0.00290758, "INCLINATION": 82.5692, "RA_OF_ASC_NODE": 63.8704, "ARG_OF_PERICENTER": 116.756, "MEAN_ANOMALY": 243.6676, "EPHEMERIS_TYPE": 0, "CLASSIFICATION_TYPE": "U", "NORAD_CAT_ID": 50621, "ELEMENT_SET_NO": 999, "REV_AT_EPOCH": 22404, "BSTAR": 0.00038326529, "MEAN_MOTION_DOT": 0.00028443, "MEAN_MOTION_DDOT": 0}, "tle": {"line1": "1 50621U 82092ALR 25356.64038985  .00028443  00000+0  38327-3 0  9995", "line2": "2 50621  82.5692  63.8704 0029075 116.7560 243.6676 15.57147690224046"}}, "geometry": {"type": "Point", "coordinates": [63.751675036053825, 8.780385500723446]}}]}